[{"CCSDS_OMM_VERS":"2.0","COMMENT":"GENERATED VIA SPACE-TRACK.ORG API","CREATION_DATE":"2022-12-08T18:21:51","ORIGINATOR":"18 SPCS","OBJECT_NAME":"GORIZONT 22","OBJECT_ID":"1990-102A","CENTER_NAME":"EARTH","REF_FRAME":"TEME","TIME_SYSTEM":"UTC","MEAN_ELEMENT_THEORY":"SGP4","EPOCH":"2022-12-08T08:49:07.539168","MEAN_MOTION":"1.00241388","ECCENTRICITY":"0.00023620","INCLINATION":"13.9106","RA_OF_ASC_NODE":"346.7447","ARG_OF_PERICENTER":"27.2545","MEAN_ANOMALY":"331.8054","EPHEMERIS_TYPE":"0","CLASSIFICATION_TYPE":"U","NORAD_CAT_ID":"20953","ELEMENT_SET_NO":"999","REV_AT_EPOCH":"11746","BSTAR":"0.00000000000000","MEAN_MOTION_DOT":"-0.00000317","MEAN_MOTION_DDOT":"0.0000000000000","SEMIMAJOR_AXIS":"42173.255","PERIOD":"1436.532","APOAPSIS":"35805.082","PERIAPSIS":"35785.159","OBJECT_TYPE":"PAYLOAD","RCS_SIZE":"LARGE","COUNTRY_CODE":"CIS","LAUNCH_DATE":"1990-11-23","SITE":"TTMTR","DECAY_DATE":null,"FILE":"3684614","GP_ID":"219758554","TLE_LINE0":"0 GORIZONT 22","TLE_LINE1":"1 20953U 90102A   22342.36744837 -.00000317  00000-0  00000-0 0  9998","TLE_LINE2":"2 20953  13.9106 346.7447 0002362  27.2545 331.8054  1.00241388117464"},{"CCSDS_OMM_VERS":"2.0","COMMENT":"GENERATED VIA SPACE-TRACK.ORG API","CREATION_DATE":"2022-12-08T18:21:51","ORIGINATOR":"18 SPCS","OBJECT_NAME":"GSTAR 4","OBJECT_ID":"1990-100B","CENTER_NAME":"EARTH","REF_FRAME":"TEME","TIME_SYSTEM":"UTC","MEAN_ELEMENT_THEORY":"SGP4","EPOCH":"2022-12-08T11:21:45.299808","MEAN_MOTION":"0.99144498","ECCENTRICITY":"0.00030140","INCLINATION":"13.4026","RA_OF_ASC_NODE":"19.1895","ARG_OF_PERICENTER":"330.1562","MEAN_ANOMALY":"206.2236","EPHEMERIS_TYPE":"0","CLASSIFICATION_TYPE":"U","NORAD_CAT_ID":"20946","ELEMENT_SET_NO":"999","REV_AT_EPOCH":"3405","BSTAR":"0.00000000000000","MEAN_MOTION_DOT":"-0.00000225","MEAN_MOTION_DDOT":"0.0000000000000","SEMIMAJOR_AXIS":"42483.742","PERIOD":"1452.426","APOAPSIS":"36118.412","PERIAPSIS":"36092.802","OBJECT_TYPE":"PAYLOAD","RCS_SIZE":"LARGE","COUNTRY_CODE":"US","LAUNCH_DATE":"1990-11-20","SITE":"FRGUI","DECAY_DATE":null,"FILE":"3684614","GP_ID":"219758060","TLE_LINE0":"0 GSTAR 4","TLE_LINE1":"1 20946U 90100B   22342.47344097 -.00000225  00000-0  00000-0 0  9992","TLE_LINE2":"2 20946  13.4026  19.1895 0003014 330.1562 206.2236  0.99144498 34051"},{"CCSDS_OMM_VERS":"2.0","COMMENT":"GENERATED VIA SPACE-TRACK.ORG API","CREATION_DATE":"2022-12-08T18:21:51","ORIGINATOR":"18 SPCS","OBJECT_NAME":"SATCOM C1","OBJECT_ID":"1990-100A","CENTER_NAME":"EARTH","REF_FRAME":"TEME","TIME_SYSTEM":"UTC","MEAN_ELEMENT_THEORY":"SGP4","EPOCH":"2022-12-08T10:21:04.161888","MEAN_MOTION":"0.99183885","ECCENTRICITY":"0.00139130","INCLINATION":"12.2779","RA_OF_ASC_NODE":"23.8278","ARG_OF_PERICENTER":"4.1690","MEAN_ANOMALY":"139.6263","EPHEMERIS_TYPE":"0","CLASSIFICATION_TYPE":"U","NORAD_CAT_ID":"20945","ELEMENT_SET_NO":"999","REV_AT_EPOCH":"11422","BSTAR":"0.00000000000000","MEAN_MOTION_DOT":"-0.00000178","MEAN_MOTION_DDOT":"0.0000000000000","SEMIMAJOR_AXIS":"42472.494","PERIOD":"1451.849","APOAPSIS":"36153.451","PERIAPSIS":"36035.267","OBJECT_TYPE":"PAYLOAD","RCS_SIZE":"LARGE","COUNTRY_CODE":"US","LAUNCH_DATE":"1990-11-20","SITE":"FRGUI","DECAY_DATE":null,"FILE":"3684614","GP_ID":"219757811","TLE_LINE0":"0 SATCOM C1","TLE_LINE1":"1 20945U 90100A   22342.43129817 -.00000178  00000-0  00000-0 0  9995","TLE_LINE2":"2 20945  12.2779  23.8278 0013913   4.1690 139.6263  0.99183885114228"},{"CCSDS_OMM_VERS":"2.0","COMMENT":"GENERATED VIA SPACE-TRACK.ORG API","CREATION_DATE":"2022-12-08T03:13:54","ORIGINATOR":"18 SPCS","OBJECT_NAME":"IUS R\/B(2)","OBJECT_ID":"1990-095D","CENTER_NAME":"EARTH","REF_FRAME":"TEME","TIME_SYSTEM":"UTC","MEAN_ELEMENT_THEORY":"SGP4","EPOCH":"2022-12-07T02:50:51.478368","MEAN_MOTION":"0.99252636","ECCENTRICITY":"0.00061490","INCLINATION":"14.7494","RA_OF_ASC_NODE":"351.7733","ARG_OF_PERICENTER":"42.6725","MEAN_ANOMALY":"317.3553","EPHEMERIS_TYPE":"0","CLASSIFICATION_TYPE":"U","NORAD_CAT_ID":"20932","ELEMENT_SET_NO":"999","REV_AT_EPOCH":"1294","BSTAR":"0.00000000000000","MEAN_MOTION_DOT":"0.00000062","MEAN_MOTION_DDOT":"0.0000000000000","SEMIMAJOR_AXIS":"42452.878","PERIOD":"1450.843","APOAPSIS":"36100.848","PERIAPSIS":"36048.639","OBJECT_TYPE":"ROCKET BODY","RCS_SIZE":null,"COUNTRY_CODE":"US","LAUNCH_DATE":"1990-11-13","SITE":"AFETR","DECAY_DATE":null,"FILE":"3684212","GP_ID":"219722954","TLE_LINE0":"0 IUS R\/B(2)","TLE_LINE1":"1 20932U 90095D   22341.11865137  .00000062  00000-0  00000-0 0  9991","TLE_LINE2":"2 20932  14.7494 351.7733 0006149  42.6725 317.3553  0.99252636 12947"},{"CCSDS_OMM_VERS":"2.0","COMMENT":"GENERATED VIA SPACE-TRACK.ORG API","CREATION_DATE":"2022-12-08T18:21:51","ORIGINATOR":"18 SPCS","OBJECT_NAME":"SL-12 R\/B(2)","OBJECT_ID":"1990-094D","CENTER_NAME":"EARTH","REF_FRAME":"TEME","TIME_SYSTEM":"UTC","MEAN_ELEMENT_THEORY":"SGP4","EPOCH":"2022-12-08T13:22:03.606816","MEAN_MOTION":"1.00860274","ECCENTRICITY":"0.00375450","INCLINATION":"13.7377","RA_OF_ASC_NODE":"345.7087","ARG_OF_PERICENTER":"122.2798","MEAN_ANOMALY":"285.1173","EPHEMERIS_TYPE":"0","CLASSIFICATION_TYPE":"U","NORAD_CAT_ID":"20926","ELEMENT_SET_NO":"999","REV_AT_EPOCH":"11825","BSTAR":"0.00000000000000","MEAN_MOTION_DOT":"-0.00000338","MEAN_MOTION_DDOT":"0.0000000000000","SEMIMAJOR_AXIS":"42000.560","PERIOD":"1427.718","APOAPSIS":"35780.116","PERIAPSIS":"35464.734","OBJECT_TYPE":"ROCKET BODY","RCS_SIZE":"LARGE","COUNTRY_CODE":"CIS","LAUNCH_DATE":"1990-11-03","SITE":"TTMTR","DECAY_DATE":null,"FILE":"3684614","GP_ID":"219757559","TLE_LINE0":"0 SL-12 R\/B(2)","TLE_LINE1":"1 20926U 90094D   22342.55698619 -.00000338  00000-0  00000-0 0  9998","TLE_LINE2":"2 20926  13.7377 345.7087 0037545 122.2798 285.1173  1.00860274118250"},{"CCSDS_OMM_VERS":"2.0","COMMENT":"GENERATED VIA SPACE-TRACK.ORG API","CREATION_DATE":"2022-12-08T18:21:51","ORIGINATOR":"18 SPCS","OBJECT_NAME":"GORIZONT 21","OBJECT_ID":"1990-094A","CENTER_NAME":"EARTH","REF_FRAME":"TEME","TIME_SYSTEM":"UTC","MEAN_ELEMENT_THEORY":"SGP4","EPOCH":"2022-12-08T09:57:18.620640","MEAN_MOTION":"1.00351011","ECCENTRICITY":"0.00049580","INCLINATION":"13.9506","RA_OF_ASC_NODE":"346.3743","ARG_OF_PERICENTER":"206.4339","MEAN_ANOMALY":"339.8522","EPHEMERIS_TYPE":"0","CLASSIFICATION_TYPE":"U","NORAD_CAT_ID":"20923","ELEMENT_SET_NO":"999","REV_AT_EPOCH":"11754","BSTAR":"0.00000000000000","MEAN_MOTION_DOT":"-0.00000296","MEAN_MOTION_DDOT":"0.0000000000000","SEMIMAJOR_AXIS":"42142.537","PERIOD":"1434.963","APOAPSIS":"35785.296","PERIAPSIS":"35743.507","OBJECT_TYPE":"PAYLOAD","RCS_SIZE":"LARGE","COUNTRY_CODE":"CIS","LAUNCH_DATE":"1990-11-03","SITE":"TTMTR","DECAY_DATE":null,"FILE":"3684614","GP_ID":"219757310","TLE_LINE0":"0 GORIZONT 21","TLE_LINE1":"1 20923U 90094A   22342.41479885 -.00000296  00000-0  00000-0 0  9995","TLE_LINE2":"2 20923  13.9506 346.3743 0004958 206.4339 339.8522  1.00351011117547"},{"CCSDS_OMM_VERS":"2.0","COMMENT":"GENERATED VIA SPACE-TRACK.ORG API","CREATION_DATE":"2022-12-08T18:21:51","ORIGINATOR":"18 SPCS","OBJECT_NAME":"GALAXY 6","OBJECT_ID":"1990-091B","CENTER_NAME":"EARTH","REF_FRAME":"TEME","TIME_SYSTEM":"UTC","MEAN_ELEMENT_THEORY":"SGP4","EPOCH":"2022-12-08T05:09:04.394880","MEAN_MOTION":"0.99755577","ECCENTRICITY":"0.00037530","INCLINATION":"13.1619","RA_OF_ASC_NODE":"19.1319","ARG_OF_PERICENTER":"175.5371","MEAN_ANOMALY":"213.1656","EPHEMERIS_TYPE":"0","CLASSIFICATION_TYPE":"U","NORAD_CAT_ID":"20873","ELEMENT_SET_NO":"999","REV_AT_EPOCH":"3361","BSTAR":"0.00000000000000","MEAN_MOTION_DOT":"-0.00000027","MEAN_MOTION_DDOT":"0.0000000000000","SEMIMAJOR_AXIS":"42310.067","PERIOD":"1443.528","APOAPSIS":"35947.811","PERIAPSIS":"35916.054","OBJECT_TYPE":"PAYLOAD","RCS_SIZE":"LARGE","COUNTRY_CODE":"US","LAUNCH_DATE":"1990-10-12","SITE":"FRGUI","DECAY_DATE":null,"FILE":"3684614","GP_ID":"219757555","TLE_LINE0":"0 GALAXY 6","TLE_LINE1":"1 20873U 90091B   22342.21463420 -.00000027  00000-0  00000-0 0  9994","TLE_LINE2":"2 20873  13.1619  19.1319 0003753 175.5371 213.1656  0.99755577 33615"},{"CCSDS_OMM_VERS":"2.0","COMMENT":"GENERATED VIA SPACE-TRACK.ORG API","CREATION_DATE":"2022-12-08T18:21:51","ORIGINATOR":"18 SPCS","OBJECT_NAME":"METEOSAT 2 AKM (MAGE 1)","OBJECT_ID":"1981-057F","CENTER_NAME":"EARTH","REF_FRAME":"TEME","TIME_SYSTEM":"UTC","MEAN_ELEMENT_THEORY":"SGP4","EPOCH":"2022-12-08T08:39:15.984288","MEAN_MOTION":"0.99369834","ECCENTRICITY":"0.00780600","INCLINATION":"10.4881","RA_OF_ASC_NODE":"310.0638","ARG_OF_PERICENTER":"177.8338","MEAN_ANOMALY":"234.0617","EPHEMERIS_TYPE":"0","CLASSIFICATION_TYPE":"U","NORAD_CAT_ID":"20837","ELEMENT_SET_NO":"999","REV_AT_EPOCH":"10661","BSTAR":"0.00000000000000","MEAN_MOTION_DOT":"-0.00000268","MEAN_MOTION_DDOT":"0.0000000000000","SEMIMAJOR_AXIS":"42419.492","PERIOD":"1449.132","APOAPSIS":"36372.484","PERIAPSIS":"35710.231","OBJECT_TYPE":"ROCKET BODY","RCS_SIZE":"LARGE","COUNTRY_CODE":"ESA","LAUNCH_DATE":"1981-06-19","SITE":"FRGUI","DECAY_DATE":null,"FILE":"3684614","GP_ID":"219758053","TLE_LINE0":"0 METEOSAT 2 AKM (MAGE 1)","TLE_LINE1":"1 20837U 81057F   22342.36060167 -.00000268  00000-0  00000-0 0  9990","TLE_LINE2":"2 20837  10.4881 310.0638 0078060 177.8338 234.0617  0.99369834106611"}]